BEIJING 1               
1 28890U 05043A   25106.47123001  .00001000  00000+0  20382-3 0  9999
2 28890  98.2334 233.9224 0014909 172.3891 187.7539 14.63099469 38223
HUANJING 1A (HJ-1A)     
1 33320U 08041A   25106.41243042  .00003831  00000+0  48179-3 0  9994
2 33320  97.6408 105.1120 0021276  98.7078 261.6547 14.82465685895242
HUANJING 1B (HJ-1B)     
1 33321U 08041B   25106.42661618  .00002675  00000+0  33867-3 0  9992
2 33321  97.6301 109.3612 0038254 141.5101 218.8853 14.82075741895261
YAOGAN-4                
1 33446U 08061A   25106.41365393  .00003148  00000+0  40394-3 0  9991
2 33446  97.9029  39.3597 0015440  26.1777 334.0213 14.81864423882430
DEIMOS-1                
1 35681U 09041A   25106.45209478  .00001504  00000+0  23330-3 0  9993
2 35681  97.6965 278.6361 0002589 110.6552 249.4936 14.74498383843984
UK-DMC 2                
1 35683U 09041C   25106.40762077  .00002388  00000+0  36230-3 0  9993
2 35683  97.8228 248.7214 0001258 106.2361 253.8987 14.74994432843684
DMC3-FM1                
1 40715U 15032A   25106.44946179  .00001616  00000+0  19569-3 0  9992
2 40715  97.7066 341.9721 0006327  31.5216 328.6378 14.84969376526565
DMC3-FM2                
1 40716U 15032B   25106.40342977  .00001628  00000+0  19694-3 0  9997
2 40716  97.7122 343.2061 0008236  33.7096 326.4642 14.85001026526551
DMC3-FM3                
1 40717U 15032C   25106.44647306  .00001702  00000+0  20311-3 0  9997
2 40717  97.7176 344.6737 0007474  17.1745 342.9722 14.85504244526569
